{"type": "FeatureCollection", "features": [ {"type": "Feature", "properties": {"norad_id": 46995, "name": "FENGYUN 1C DEB", "group": "fengyun-1c-debris", "lat": 80.35624252715881, "lon": -51.63942395191867, "alt_km": 816.6929468655235, "timestamp": "2025-12-09T04:51:47.783568+00:00", "meta": {"OBJECT_NAME": "FENGYUN 1C DEB", "OBJECT_ID": "1999-025EZV", "EPOCH": "2025-12-08T04:09:42.058944", "MEAN_MOTION": 13.86298509, "ECCENTRICITY": 0.01910077, "INCLINATION": 98.5941, "RA_OF_ASC_NODE": 64.5473, "ARG_OF_PERICENTER": 130.6271, "MEAN_ANOMALY": 231.1675, "EPHEMERIS_TYPE": 0, "CLASSIFICATION_TYPE": "U", "NORAD_CAT_ID": 46995, "ELEMENT_SET_NO": 999, "REV_AT_EPOCH": 60405, "BSTAR": 0.0036530697, "MEAN_MOTION_DOT": 4.839e-05, "MEAN_MOTION_DDOT": 0}, "tle": {"line1": "1 46995U 99025EZV 25342.17340346  .00004839  00000+0  36531-2 0  9995", "line2": "2 46995  98.5941  64.5473 0191007 130.6271 231.1675 13.86298509604059"}}, "geometry": {"type": "Point", "coordinates": [-51.63942395191867, 80.35624252715881]}}, {"type": "Feature", "properties": {"norad_id": 46997, "name": "FENGYUN 1C DEB", "group": "fengyun-1c-debris", "lat": -66.42328990412288, "lon": -176.5726683292536, "alt_km": 808.5718231755654, "timestamp": "2025-12-09T04:51:47.783578+00:00", "meta": {"OBJECT_NAME": "FENGYUN 1C DEB", "OBJECT_ID": "1999-025EZX", "EPOCH": "2025-12-07T08:16:23.280096", "MEAN_MOTION": 14.27956499, "ECCENTRICITY": 0.0024911, "INCLINATION": 98.5588, "RA_OF_ASC_NODE": 21.7939, "ARG_OF_PERICENTER": 352.6348, "MEAN_ANOMALY": 70.0216, "EPHEMERIS_TYPE": 0, "CLASSIFICATION_TYPE": "U", "NORAD_CAT_ID": 46997, "ELEMENT_SET_NO": 999, "REV_AT_EPOCH": 62374, "BSTAR": 0.0018200701, "MEAN_MOTION_DOT": 4.485e-05, "MEAN_MOTION_DDOT": 0}, "tle": {"line1": "1 46997U 99025EZX 25341.34471389  .00004485  00000+0  18201-2 0  9998", "line2": "2 46997  98.5588  21.7939 0024911 352.6348  70.0216 14.27956499623743"}}, "geometry": {"type": "Point", "coordinates": [-176.5726683292536, -66.42328990412288]}}, {"type": "Feature", "properties": {"norad_id": 47001, "name": "FENGYUN 1C DEB", "group": "fengyun-1c-debris", "lat": 40.24074297546557, "lon": -131.07949076309853, "alt_km": 753.2074590981902, "timestamp": "2025-12-09T04:51:47.783588+00:00", "meta": {"OBJECT_NAME": "FENGYUN 1C DEB", "OBJECT_ID": "1999-025FAB", "EPOCH": "2025-12-07T10:29:17.111904", "MEAN_MOTION": 14.38395012, "ECCENTRICITY": 0.00520949, "INCLINATION": 99.3051, "RA_OF_ASC_NODE": 39.033, "ARG_OF_PERICENTER": 65.208, "MEAN_ANOMALY": 295.4512, "EPHEMERIS_TYPE": 0, "CLASSIFICATION_TYPE": "U", "NORAD_CAT_ID": 47001, "ELEMENT_SET_NO": 999, "REV_AT_EPOCH": 73838, "BSTAR": 0.0025435781, "MEAN_MOTION_DOT": 7.837e-05, "MEAN_MOTION_DDOT": 0}, "tle": {"line1": "1 47001U 99025FAB 25341.43700361  .00007837  00000+0  25436-2 0  9992", "line2": "2 47001  99.3051  39.0330 0052094  65.2080 295.4512 14.38395012738383"}}, "geometry": {"type": "Point", "coordinates": [-131.07949076309853, 40.24074297546557]}}, {"type": "Feature", "properties": {"norad_id": 47005, "name": "FENGYUN 1C DEB", "group": "fengyun-1c-debris", "lat": -23.05232064861912, "lon": -112.24365458099783, "alt_km": 830.6454675320783, "timestamp": "2025-12-09T04:51:47.783599+00:00", "meta": {"OBJECT_NAME": "FENGYUN 1C DEB", "OBJECT_ID": "1999-025FAF", "EPOCH": "2025-12-03T11:49:12.815616", "MEAN_MOTION": 14.10913141, "ECCENTRICITY": 0.00635736, "INCLINATION": 99.6019, "RA_OF_ASC_NODE": 65.7889, "ARG_OF_PERICENTER": 267.3996, "MEAN_ANOMALY": 108.1197, "EPHEMERIS_TYPE": 0, "CLASSIFICATION_TYPE": "U", "NORAD_CAT_ID": 47005, "ELEMENT_SET_NO": 999, "REV_AT_EPOCH": 82637, "BSTAR": 0.0032335345, "MEAN_MOTION_DOT": 5.865e-05, "MEAN_MOTION_DDOT": 0}, "tle": {"line1": "1 47005U 99025FAF 25337.49250944  .00005865  00000+0  32335-2 0  9999", "line2": "2 47005  99.6019  65.7889 0063573 267.3996 108.1197 14.10913141826379"}}, "geometry": {"type": "Point", "coordinates": [-112.24365458099783, -23.05232064861912]}}, {"type": "Feature", "properties": {"norad_id": 47007, "name": "FENGYUN 1C DEB", "group": "fengyun-1c-debris", "lat": 25.47469540507726, "lon": 29.498482639825475, "alt_km": 900.1525701232586, "timestamp": "2025-12-09T04:51:47.783609+00:00", "meta": {"OBJECT_NAME": "FENGYUN 1C DEB", "OBJECT_ID": "1999-025FAH", "EPOCH": "2025-12-08T19:33:31.902048", "MEAN_MOTION": 13.97175049, "ECCENTRICITY": 0.0236024, "INCLINATION": 98.2064, "RA_OF_ASC_NODE": 205.2095, "ARG_OF_PERICENTER": 64.7306, "MEAN_ANOMALY": 297.8116, "EPHEMERIS_TYPE": 0, "CLASSIFICATION_TYPE": "U", "NORAD_CAT_ID": 47007, "ELEMENT_SET_NO": 999, "REV_AT_EPOCH": 78794, "BSTAR": 0.0034234, "MEAN_MOTION_DOT": 6.031e-05, "MEAN_MOTION_DDOT": 0}, "tle": {"line1": "1 47007U 99025FAH 25342.81495257  .00006031  00000+0  34234-2 0  9997", "line2": "2 47007  98.2064 205.2095 0236024  64.7306 297.8116 13.97175049787940"}}, "geometry": {"type": "Point", "coordinates": [29.498482639825475, 25.47469540507726]}}, {"type": "Feature", "properties": {"norad_id": 47009, "name": "FENGYUN 1C DEB", "group": "fengyun-1c-debris", "lat": 42.63768671631107, "lon": 155.77537090839408, "alt_km": 1285.9114467433828, "timestamp": "2025-12-09T04:51:47.783619+00:00", "meta": {"OBJECT_NAME": "FENGYUN 1C DEB", "OBJECT_ID": "1999-025FAK", "EPOCH": "2025-12-02T05:09:31.123584", "MEAN_MOTION": 13.37303446, "ECCENTRICITY": 0.0352227, "INCLINATION": 98.9376, "RA_OF_ASC_NODE": 321.2954, "ARG_OF_PERICENTER": 285.6992, "MEAN_ANOMALY": 70.555, "EPHEMERIS_TYPE": 0, "CLASSIFICATION_TYPE": "U", "NORAD_CAT_ID": 47009, "ELEMENT_SET_NO": 999, "REV_AT_EPOCH": 58668, "BSTAR": 0.00057132, "MEAN_MOTION_DOT": 3.87e-06, "MEAN_MOTION_DDOT": 0}, "tle": {"line1": "1 47009U 99025FAK 25336.21494356  .00000387  00000+0  57132-3 0  9996", "line2": "2 47009  98.9376 321.2954 0352227 285.6992  70.5550 13.37303446586681"}}, "geometry": {"type": "Point", "coordinates": [155.77537090839408, 42.63768671631107]}}, {"type": "Feature", "properties": {"norad_id": 47012, "name": "FENGYUN 1C DEB", "group": "fengyun-1c-debris", "lat": 13.421007117928063, "lon": -140.15205127282638, "alt_km": 909.2427351513825, "timestamp": "2025-12-09T04:51:47.783629+00:00", "meta": {"OBJECT_NAME": "FENGYUN 1C DEB", "OBJECT_ID": "1999-025FAN", "EPOCH": "2025-12-05T22:22:36.481152", "MEAN_MOTION": 13.77908149, "ECCENTRICITY": 0.01638485, "INCLINATION": 98.755, "RA_OF_ASC_NODE": 218.9381, "ARG_OF_PERICENTER": 81.7177, "MEAN_ANOMALY": 280.2518, "EPHEMERIS_TYPE": 0, "CLASSIFICATION_TYPE": "U", "NORAD_CAT_ID": 47012, "ELEMENT_SET_NO": 999, "REV_AT_EPOCH": 54479, "BSTAR": 0.00065808903, "MEAN_MOTION_DOT": 6.91e-06, "MEAN_MOTION_DDOT": 0}, "tle": {"line1": "1 47012U 99025FAN 25339.93236668  .00000691  00000+0  65809-3 0  9990", "line2": "2 47012  98.7550 218.9381 0163848  81.7177 280.2518 13.77908149544797"}}, "geometry": {"type": "Point", "coordinates": [-140.15205127282638, 13.421007117928063]}}, {"type": "Feature", "properties": {"norad_id": 47013, "name": "FENGYUN 1C DEB", "group": "fengyun-1c-debris", "lat": -78.82696626547697, "lon": 99.28454302716209, "alt_km": 827.3267807506927, "timestamp": "2025-12-09T04:51:47.783659+00:00", "meta": {"OBJECT_NAME": "FENGYUN 1C DEB", "OBJECT_ID": "1999-025FAP", "EPOCH": "2025-11-16T11:10:59.954016", "MEAN_MOTION": 14.24672933, "ECCENTRICITY": 0.00559466, "INCLINATION": 98.0819, "RA_OF_ASC_NODE": 32.3431, "ARG_OF_PERICENTER": 238.0397, "MEAN_ANOMALY": 121.5338, "EPHEMERIS_TYPE": 0, "CLASSIFICATION_TYPE": "U", "NORAD_CAT_ID": 47013, "ELEMENT_SET_NO": 999, "REV_AT_EPOCH": 72885, "BSTAR": 0.0028202138, "MEAN_MOTION_DOT": 6.632e-05, "MEAN_MOTION_DDOT": 0}, "tle": {"line1": "1 47013U 99025FAP 25320.46597169  .00006632  00000+0  28202-2 0  9991", "line2": "2 47013  98.0819  32.3431 0055946 238.0397 121.5338 14.24672933728853"}}, "geometry": {"type": "Point", "coordinates": [99.28454302716209, -78.82696626547697]}}, {"type": "Feature", "properties": {"norad_id": 47015, "name": "FENGYUN 1C DEB", "group": "fengyun-1c-debris", "lat": 32.800196491748984, "lon": 33.900905942957785, "alt_km": 603.4449302326502, "timestamp": "2025-12-09T04:51:47.783670+00:00", "meta": {"OBJECT_NAME": "FENGYUN 1C DEB", "OBJECT_ID": "1999-025FAR", "EPOCH": "2025-12-07T02:39:25.768224", "MEAN_MOTION": 14.87223256, "ECCENTRICITY": 0.01761697, "INCLINATION": 98.7113, "RA_OF_ASC_NODE": 37.2769, "ARG_OF_PERICENTER": 130.5796, "MEAN_ANOMALY": 231.0902, "EPHEMERIS_TYPE": 0, "CLASSIFICATION_TYPE": "U", "NORAD_CAT_ID": 47015, "ELEMENT_SET_NO": 999, "REV_AT_EPOCH": 64298, "BSTAR": 0.0012529524, "MEAN_MOTION_DOT": 0.00014972, "MEAN_MOTION_DDOT": 0}, "tle": {"line1": "1 47015U 99025FAR 25341.11071491  .00014972  00000+0  12530-2 0  9996", "line2": "2 47015  98.7113  37.2769 0176169 130.5796 231.0902 14.87223256642989"}}, "geometry": {"type": "Point", "coordinates": [33.900905942957785, 32.800196491748984]}}, {"type": "Feature", "properties": {"norad_id": 47025, "name": "FENGYUN 1C DEB", "group": "fengyun-1c-debris", "lat": -1.8177446914266937, "lon": 9.216395305134277, "alt_km": 770.0065226168526, "timestamp": "2025-12-09T04:51:47.783680+00:00", "meta": {"OBJECT_NAME": "FENGYUN 1C DEB", "OBJECT_ID": "1999-025FBB", "EPOCH": "2025-12-08T19:47:29.024736", "MEAN_MOTION": 14.46200344, "ECCENTRICITY": 0.0040643, "INCLINATION": 99.0323, "RA_OF_ASC_NODE": 189.1032, "ARG_OF_PERICENTER": 8.7166, "MEAN_ANOMALY": 6.1141, "EPHEMERIS_TYPE": 0, "CLASSIFICATION_TYPE": "U", "NORAD_CAT_ID": 47025, "ELEMENT_SET_NO": 999, "REV_AT_EPOCH": 62685, "BSTAR": 0.0030039, "MEAN_MOTION_DOT": 0.00010821, "MEAN_MOTION_DDOT": 0}, "tle": {"line1": "1 47025U 99025FBB 25342.82464149  .00010821  00000+0  30039-2 0  9995", "line2": "2 47025  99.0323 189.1032 0040643   8.7166   6.1141 14.46200344626853"}}, "geometry": {"type": "Point", "coordinates": [9.216395305134277, -1.8177446914266937]}}]}